[{"OBJECT_NAME":"STARLINK-32290","OBJECT_ID":"2024-138E","EPOCH":"2026-03-09T21:21:44.499168","MEAN_MOTION":15.30174129,"ECCENTRICITY":4.837e-5,"INCLINATION":53.1597,"RA_OF_ASC_NODE":309.0077,"ARG_OF_PERICENTER":123.8936,"MEAN_ANOMALY":236.2111,"EPHEMERIS_TYPE":0,"CLASSIFICATION_TYPE":"U","NORAD_CAT_ID":60359,"ELEMENT_SET_NO":999,"REV_AT_EPOCH":7168,"BSTAR":0.00017799107,"MEAN_MOTION_DOT":4.912e-5,"MEAN_MOTION_DDOT":0},{"OBJECT_NAME":"KUIPER-00209","OBJECT_ID":"2026-030N","EPOCH":"2026-03-09T14:49:43.575744","MEAN_MOTION":15.3016195,"ECCENTRICITY":0.0012191,"INCLINATION":51.8838,"RA_OF_ASC_NODE":220.0775,"ARG_OF_PERICENTER":59.1967,"MEAN_ANOMALY":301.0215,"EPHEMERIS_TYPE":0,"CLASSIFICATION_TYPE":"U","NORAD_CAT_ID":67776,"ELEMENT_SET_NO":999,"REV_AT_EPOCH":507,"BSTAR":0.0011963,"MEAN_MOTION_DOT":0.00035298,"MEAN_MOTION_DDOT":0}]
